[{"OBJECT_NAME":"STARLINK-34709","OBJECT_ID":"2025-152C","EPOCH":"2026-03-09T14:41:42.337248","MEAN_MOTION":15.05647207,"ECCENTRICITY":0.0001833,"INCLINATION":97.6028,"RA_OF_ASC_NODE":285.3976,"ARG_OF_PERICENTER":89.5446,"MEAN_ANOMALY":270.599,"EPHEMERIS_TYPE":0,"CLASSIFICATION_TYPE":"U","NORAD_CAT_ID":64844,"ELEMENT_SET_NO":999,"REV_AT_EPOCH":3540,"BSTAR":0.00038915,"MEAN_MOTION_DOT":5.558e-5,"MEAN_MOTION_DDOT":0},{"OBJECT_NAME":"HAMSAT (VO-52)","OBJECT_ID":"2005-017B","EPOCH":"2026-03-09T22:34:09.009120","MEAN_MOTION":15.08773202,"ECCENTRICITY":0.00200128,"INCLINATION":97.9995,"RA_OF_ASC_NODE":87.8294,"ARG_OF_PERICENTER":17.3795,"MEAN_ANOMALY":342.8113,"EPHEMERIS_TYPE":0,"CLASSIFICATION_TYPE":"U","NORAD_CAT_ID":28650,"ELEMENT_SET_NO":999,"REV_AT_EPOCH":13179,"BSTAR":0.00045282519,"MEAN_MOTION_DOT":7.08e-5,"MEAN_MOTION_DDOT":0}]
